[{"OBJECT_NAME":"JY1SAT (JO-97)","OBJECT_ID":"2018-099AX","EPOCH":"2026-03-09T16:28:19.890048","MEAN_MOTION":15.30302629,"ECCENTRICITY":0.00047232,"INCLINATION":97.4249,"RA_OF_ASC_NODE":131.3625,"ARG_OF_PERICENTER":256.6795,"MEAN_ANOMALY":103.3919,"EPHEMERIS_TYPE":0,"CLASSIFICATION_TYPE":"U","NORAD_CAT_ID":43803,"ELEMENT_SET_NO":999,"REV_AT_EPOCH":39839,"BSTAR":0.00060804308,"MEAN_MOTION_DOT":0.00017774,"MEAN_MOTION_DDOT":0},{"OBJECT_NAME":"STARLINK-36496","OBJECT_ID":"2026-002AA","EPOCH":"2026-03-09T01:33:51.489792","MEAN_MOTION":15.27564785,"ECCENTRICITY":0.00017394,"INCLINATION":43.0006,"RA_OF_ASC_NODE":328.7667,"ARG_OF_PERICENTER":272.1531,"MEAN_ANOMALY":87.9121,"EPHEMERIS_TYPE":0,"CLASSIFICATION_TYPE":"U","NORAD_CAT_ID":67329,"ELEMENT_SET_NO":999,"REV_AT_EPOCH":1096,"BSTAR":0.0013789403,"MEAN_MOTION_DOT":0.00037861,"MEAN_MOTION_DDOT":0}]
